[{"OBJECT_NAME":"IRIDIUM 111","OBJECT_ID":"2017-003K","EPOCH":"2026-03-09T16:49:02.226144","MEAN_MOTION":14.34218028,"ECCENTRICITY":0.00021015,"INCLINATION":86.3976,"RA_OF_ASC_NODE":129.9805,"ARG_OF_PERICENTER":94.2487,"MEAN_ANOMALY":265.8949,"EPHEMERIS_TYPE":0,"CLASSIFICATION_TYPE":"U","NORAD_CAT_ID":41926,"ELEMENT_SET_NO":999,"REV_AT_EPOCH":47899,"BSTAR":1.777394e-5,"MEAN_MOTION_DOT":7.0e-7,"MEAN_MOTION_DDOT":0},{"OBJECT_NAME":"COSMOS 2251 DEB","OBJECT_ID":"1993-036HK","EPOCH":"2026-03-09T22:27:46.252800","MEAN_MOTION":14.35507774,"ECCENTRICITY":0.00213965,"INCLINATION":74.0471,"RA_OF_ASC_NODE":156.1658,"ARG_OF_PERICENTER":193.2337,"MEAN_ANOMALY":287.1374,"EPHEMERIS_TYPE":0,"CLASSIFICATION_TYPE":"U","NORAD_CAT_ID":34024,"ELEMENT_SET_NO":999,"REV_AT_EPOCH":89275,"BSTAR":0.00020246588,"MEAN_MOTION_DOT":5.58e-6,"MEAN_MOTION_DDOT":0}]
